{
  "type": "FeatureCollection",
  "features": [
    {
      "type": "Feature",
      "properties": {
        "norad_id": 55973,
        "name": "TIANMU-1 03",
        "group": "weather",
        "lat": 6.463946359694236,
        "lon": 151.35646493558568,
        "alt_km": 443.30450373387794,
        "timestamp": "2025-12-15T11:38:36.800787+00:00",
        "meta_object_name": "TIANMU-1 03",
        "meta_object_id": "2023-039A",
        "meta_epoch": "2025-12-14T21:35:21.912288",
        "meta_mean_motion": 15.40996089,
        "meta_eccentricity": 0.00043253,
        "meta_inclination": 97.5104,
        "meta_ra_of_asc_node": 151.6111,
        "meta_arg_of_pericenter": 54.7926,
        "meta_mean_anomaly": 305.3725,
        "meta_ephemeris_type": 0,
        "meta_classification_type": "U",
        "meta_norad_cat_id": 55973,
        "meta_element_set_no": 999,
        "meta_rev_at_epoch": 15239,
        "meta_bstar": 0.00032130694,
        "meta_mean_motion_dot": 0.0001317,
        "meta_mean_motion_ddot": 0,
        "tle_line1": "1 55973U 23039A   25348.89955917  .00013170  00000+0  32131-3 0  9995",
        "tle_line2": "2 55973  97.5104 151.6111 0004325  54.7926 305.3725 15.40996089152396"
      },
      "geometry": {
        "type": "Point",
        "coordinates": [
          151.35646493558568,
          6.463946359694236
        ]
      }
    },
    {
      "type": "Feature",
      "properties": {
        "norad_id": 55974,
        "name": "TIANMU-1 04",
        "group": "weather",
        "lat": 55.19048527150816,
        "lon": -17.668836740611695,
        "alt_km": 436.13432275096056,
        "timestamp": "2025-12-15T11:38:36.800842+00:00",
        "meta_object_name": "TIANMU-1 04",
        "meta_object_id": "2023-039B",
        "meta_epoch": "2025-12-14T22:38:34.590624",
        "meta_mean_motion": 15.41333569,
        "meta_eccentricity": 0.00049878,
        "meta_inclination": 97.5035,
        "meta_ra_of_asc_node": 150.8464,
        "meta_arg_of_pericenter": 49.599,
        "meta_mean_anomaly": 310.5691,
        "meta_ephemeris_type": 0,
        "meta_classification_type": "U",
        "meta_norad_cat_id": 55974,
        "meta_element_set_no": 999,
        "meta_rev_at_epoch": 15240,
        "meta_bstar": 0.00027948992,
        "meta_mean_motion_dot": 0.00011572,
        "meta_mean_motion_ddot": 0,
        "tle_line1": "1 55974U 23039B   25348.94345591  .00011572  00000+0  27949-3 0  9998",
        "tle_line2": "2 55974  97.5035 150.8464 0004987  49.5990 310.5691 15.41333569152400"
      },
      "geometry": {
        "type": "Point",
        "coordinates": [
          -17.668836740611695,
          55.19048527150816
        ]
      }
    },
    {
      "type": "Feature",
      "properties": {
        "norad_id": 55975,
        "name": "TIANMU-1 05",
        "group": "weather",
        "lat": 27.470265492582406,
        "lon": -24.17269049596697,
        "alt_km": 441.8328984467007,
        "timestamp": "2025-12-15T11:38:36.800855+00:00",
        "meta_object_name": "TIANMU-1 05",
        "meta_object_id": "2023-039C",
        "meta_epoch": "2025-12-14T22:31:04.442304",
        "meta_mean_motion": 15.40953066,
        "meta_eccentricity": 0.00043046,
        "meta_inclination": 97.5082,
        "meta_ra_of_asc_node": 151.3335,
        "meta_arg_of_pericenter": 72.0154,
        "meta_mean_anomaly": 288.1561,
        "meta_ephemeris_type": 0,
        "meta_classification_type": "U",
        "meta_norad_cat_id": 55975,
        "meta_element_set_no": 999,
        "meta_rev_at_epoch": 15238,
        "meta_bstar": 0.00028678417,
        "meta_mean_motion_dot": 0.00011726,
        "meta_mean_motion_ddot": 0,
        "tle_line1": "1 55975U 23039C   25348.93824586  .00011726  00000+0  28678-3 0  9995",
        "tle_line2": "2 55975  97.5082 151.3335 0004304  72.0154 288.1561 15.40953066152384"
      },
      "geometry": {
        "type": "Point",
        "coordinates": [
          -24.17269049596697,
          27.470265492582406
        ]
      }
    },
    {
      "type": "Feature",
      "properties": {
        "norad_id": 55976,
        "name": "TIANMU-1 06",
        "group": "weather",
        "lat": 66.32996115584996,
        "lon": -10.12384160797619,
        "alt_km": 433.4099138146039,
        "timestamp": "2025-12-15T11:38:36.800866+00:00",
        "meta_object_name": "TIANMU-1 06",
        "meta_object_id": "2023-039D",
        "meta_epoch": "2025-12-14T22:41:36.090240",
        "meta_mean_motion": 15.41385734,
        "meta_eccentricity": 0.00046165,
        "meta_inclination": 97.5093,
        "meta_ra_of_asc_node": 151.8079,
        "meta_arg_of_pericenter": 66.992,
        "meta_mean_anomaly": 293.1813,
        "meta_ephemeris_type": 0,
        "meta_classification_type": "U",
        "meta_norad_cat_id": 55976,
        "meta_element_set_no": 999,
        "meta_rev_at_epoch": 15240,
        "meta_bstar": 0.00028149824,
        "meta_mean_motion_dot": 0.00011676,
        "meta_mean_motion_ddot": 0,
        "tle_line1": "1 55976U 23039D   25348.94555660  .00011676  00000+0  28150-3 0  9990",
        "tle_line2": "2 55976  97.5093 151.8079 0004616  66.9920 293.1813 15.41385734152407"
      },
      "geometry": {
        "type": "Point",
        "coordinates": [
          -10.12384160797619,
          66.32996115584996
        ]
      }
    },
    {
      "type": "Feature",
      "properties": {
        "norad_id": 56232,
        "name": "FENGYUN 3G",
        "group": "weather",
        "lat": -18.57117609245036,
        "lon": -163.10560790382854,
        "alt_km": 414.4651863725039,
        "timestamp": "2025-12-15T11:38:36.800877+00:00",
        "meta_object_name": "FENGYUN 3G",
        "meta_object_id": "2023-055A",
        "meta_epoch": "2025-12-14T21:51:30.526272",
        "meta_mean_motion": 15.53795796,
        "meta_eccentricity": 0.00093249,
        "meta_inclination": 49.9933,
        "meta_ra_of_asc_node": 216.2516,
        "meta_arg_of_pericenter": 158.5389,
        "meta_mean_anomaly": 201.5971,
        "meta_ephemeris_type": 0,
        "meta_classification_type": "U",
        "meta_norad_cat_id": 56232,
        "meta_element_set_no": 999,
        "meta_rev_at_epoch": 15136,
        "meta_bstar": 0.00042540795,
        "meta_mean_motion_dot": 0.00027529,
        "meta_mean_motion_ddot": 0,
        "tle_line1": "1 56232U 23055A   25348.91076998  .00027529  00000+0  42541-3 0  9997",
        "tle_line2": "2 56232  49.9933 216.2516 0009324 158.5389 201.5971 15.53795796151365"
      },
      "geometry": {
        "type": "Point",
        "coordinates": [
          -163.10560790382854,
          -18.57117609245036
        ]
      }
    },
    {
      "type": "Feature",
      "properties": {
        "norad_id": 57166,
        "name": "METEOR-M2 3",
        "group": "weather",
        "lat": -80.65861249846854,
        "lon": 110.50177254778819,
        "alt_km": 818.9742839232249,
        "timestamp": "2025-12-15T11:38:36.800887+00:00",
        "meta_object_name": "METEOR-M2 3",
        "meta_object_id": "2023-091A",
        "meta_epoch": "2025-12-14T22:33:29.695392",
        "meta_mean_motion": 14.24026286,
        "meta_eccentricity": 0.00037827,
        "meta_inclination": 98.6376,
        "meta_ra_of_asc_node": 42.4408,
        "meta_arg_of_pericenter": 2.5521,
        "meta_mean_anomaly": 357.5677,
        "meta_ephemeris_type": 0,
        "meta_classification_type": "U",
        "meta_norad_cat_id": 57166,
        "meta_element_set_no": 999,
        "meta_rev_at_epoch": 12829,
        "meta_bstar": 2.5680059e-05,
        "meta_mean_motion_dot": 1.6e-07,
        "meta_mean_motion_ddot": 0,
        "tle_line1": "1 57166U 23091A   25348.93992703  .00000016  00000+0  25680-4 0  9995",
        "tle_line2": "2 57166  98.6376  42.4408 0003782   2.5521 357.5677 14.24026286128290"
      },
      "geometry": {
        "type": "Point",
        "coordinates": [
          110.50177254778819,
          -80.65861249846854
        ]
      }
    },
    {
      "type": "Feature",
      "properties": {
        "norad_id": 57399,
        "name": "TIANMU-1 07",
        "group": "weather",
        "lat": 46.84114774118105,
        "lon": 31.430229256576798,
        "alt_km": 474.0079344837477,
        "timestamp": "2025-12-15T11:38:36.800898+00:00",
        "meta_object_name": "TIANMU-1 07",
        "meta_object_id": "2023-101A",
        "meta_epoch": "2025-12-14T22:51:52.507584",
        "meta_mean_motion": 15.28107784,
        "meta_eccentricity": 0.00055246,
        "meta_inclination": 97.2881,
        "meta_ra_of_asc_node": 38.7538,
        "meta_arg_of_pericenter": 76.0659,
        "meta_mean_anomaly": 284.1195,
        "meta_ephemeris_type": 0,
        "meta_classification_type": "U",
        "meta_norad_cat_id": 57399,
        "meta_element_set_no": 999,
        "meta_rev_at_epoch": 13349,
        "meta_bstar": 0.00020976115,
        "meta_mean_motion_dot": 5.678e-05,
        "meta_mean_motion_ddot": 0,
        "tle_line1": "1 57399U 23101A   25348.95269106  .00005678  00000+0  20976-3 0  9992",
        "tle_line2": "2 57399  97.2881  38.7538 0005524  76.0659 284.1195 15.28107784133496"
      },
      "geometry": {
        "type": "Point",
        "coordinates": [
          31.430229256576798,
          46.84114774118105
        ]
      }
    }
  ]
}